[
    {
        "Altitude(m)": 604221.2281436957,
        "Argument of Periapsis(deg)": 0.0,
        "Eccentricity": 0.0,
        "Inclination(deg)": 60.0,
        "Latitude(deg)": 14.117381671224534,
        "Longitude(deg)": 78.33414060343505,
        "Mean Anomaly(deg)": 16.363600000000012,
        "RAAN(deg)": 170.00000000000003,
        "Satellite Name": "Test1 749",
        "Satellite Number": 749,
        "Semi-Major Axis(m)": 6980739.136638005,
        "Time(s)": 0
    },
    {
        "Altitude(m)": 604235.3699282348,
        "Argument of Periapsis(deg)": 0.00010418945913296404,
        "Eccentricity": 0.0,
        "Inclination(deg)": 60.0,
        "Latitude(deg)": 14.65177869308762,
        "Longitude(deg)": 78.62258720293059,
        "Mean Anomaly(deg)": 16.983706145461838,
        "RAAN(deg)": 169.99957995086027,
        "Satellite Name": "Test1 749",
        "Satellite Number": 749,
        "Semi-Major Axis(m)": 6980739.136638005,
        "Time(s)": 10
    }
]